{"fetched_at":"2026-03-29T16:36:15Z","count":15609,"tles":[{"name":"STARLINK-4739","line1":"1 53792U 22111V   26087.71785067  .00001331  00000+0  10170-3 0  9996","line2":"2 53792  53.2175 189.0535 0001394  96.1733 263.9418 15.08839840196553","category":"Starlink"}]}